0 CZ-4 DEB
1 29509U 06046E   13284.17176164  .00001523  00000-0  16294-3 0  1440
2 29509 097.8255 254.6230 0050007 141.4406 282.8071 14.89321003376541
0 CZ-4 DEB
1 29509U 06046E   13286.46707709  .00001371  00000-0  14727-3 0  1450
2 29509 097.8258 256.8927 0050131 134.0639 349.0908 14.89327461376881
0 CZ-4 DEB
1 29509U 06046E   13288.48232769  .00001893  00000-0  20094-3 0  1467
2 29509 097.8263 258.8854 0050252 127.5996 353.8405 14.89338455377189
0 CZ-4 DEB
1 29509U 06046E   13291.15860074  .00001525  00000-0  16296-3 0  1495
2 29509 097.8272 261.5320 0050271 119.0611 302.7378 14.89347622377581
0 CZ-4 DEB
1 29509U 06046E   13293.52131735  .00002222  00000-0  23467-3 0  1508
2 29509 097.8274 263.8688 0050364 111.5399 010.5574 14.89352358377931
0 CZ-4 DEB
1 29509U 06046E   13295.86050705  .00002280  00000-0  24052-3 0  1510
2 29509 097.8276 266.1827 0050354 104.0553 312.3138 14.89362887378288
